NORAD_CAT_ID,OBJECT_NAME,OBJECT_TYPE,EPOCH,MEAN_MOTION,ECCENTRICITY,INCLINATION,RA_OF_ASC_NODE,ARG_OF_PERICENTER,MEAN_ANOMALY,BSTAR,MEAN_MOTION_DOT,MEAN_MOTION_DDOT,TLE_LINE0,TLE_LINE1,TLE_LINE2,SEMIMAJOR_AXIS,PERIOD,APOGEE,PERIGEE,DECAYED
52700.0,STARLINK-4034,PAYLOAD,2022-10-23 15:52:15,15.0885108,0.0002242,53.2181,284.3923,39.2105,320.9049,0.00013051,1.7899999999999998e-05,0.0,0 STARLINK-4034,1 52700U 22053AW  22296.66128795  .00001790  00000-0  13051-3 0  9991,2 52700  53.2181 284.3923 0002242  39.2105 320.9049 15.08851080 24534,6917.847,95.437,541.263,538.161,0.0
52700.0,STARLINK-4034,PAYLOAD,2022-10-24 06:10:43,15.08856058,0.0002265,53.218,281.7162,33.3139,326.7995,-0.0001488,-2.657e-05,0.0,0 STARLINK-4034,1 52700U 22053AW  22297.25744799 -.00002657  00000-0 -14880-3 0  9991,2 52700  53.2180 281.7162 0002265  33.3139 326.7995 15.08856058 25036,6917.831,95.437,541.263,538.129,0.0
52700.0,STARLINK-4034,PAYLOAD,2022-10-24 23:40:00,15.08817612,0.0002191999999999,53.218,278.4453,41.7913,318.3247,-0.00013175,-2.383e-05,0.0,0 STARLINK-4034,1 52700U 22053AW  22297.98611712 -.00002383  00000-0 -13175-3 0  9991,2 52700  53.2180 278.4453 0002192  41.7913 318.3247 15.08817612 24730,6917.949000000001,95.439,541.33,538.297,0.0
52700.0,STARLINK-4034,PAYLOAD,2022-10-25 07:36:55,15.08824972,0.0002197,53.2182,276.9586,42.7633,317.3529,-6.7471e-05,-1.361e-05,0.0,0 STARLINK-4034,1 52700U 22053AW  22298.31731367 -.00001361  00000-0 -67471-4 0  9992,2 52700  53.2182 276.9586 0002197  42.7633 317.3529 15.08824972 24781,6917.926,95.439,541.311,538.271,0.0
52700.0,STARLINK-4034,PAYLOAD,2022-10-26 04:16:56,15.08835273,0.0002197,53.2186,273.0934,47.9144,312.2035,4.0627e-05,3.58e-06,0.0,0 STARLINK-4034,1 52700U 22053AW  22299.17842949  .00000358  00000-0  40627-4 0  9993,2 52700  53.2186 273.0934 0002197  47.9144 312.2035 15.08835273 24911,6917.895,95.438,541.28,538.24,0.0
52700.0,STARLINK-4034,PAYLOAD,2022-10-26 07:27:42,15.08837556,0.0002186,53.2187,272.4987,56.0653,304.0547,8.331799999999999e-05,1.038e-05,0.0,0 STARLINK-4034,1 52700U 22053AW  22299.31090800  .00001038  00000-0  83318-4 0  9990,2 52700  53.2187 272.4987 0002186  56.0653 304.0547 15.08837556 25348,6917.888000000001,95.438,541.265,538.241,0.0
52700.0,STARLINK-4034,PAYLOAD,2022-10-26 15:24:38,15.08835608,0.0002331999999999,53.2184,271.0116,43.9147,316.203,0.00026821,3.982e-05,0.0,0 STARLINK-4034,1 52700U 22053AW  22299.64210792  .00003982  00000-0  26821-3 0  9995,2 52700  53.2184 271.0116 0002332  43.9147 316.2030 15.08835608 25393,6917.894,95.438,541.372,538.146,0.0
52700.0,STARLINK-4034,PAYLOAD,2022-10-27 02:32:19,15.08849527,0.0002325,53.2184,268.9297,44.1918,315.926,0.00036752,5.567e-05,0.0,0 STARLINK-4034,1 52700U 22053AW  22300.10578208  .00005567  00000-0  36752-3 0  9993,2 52700  53.2184 268.9297 0002325  44.1918 315.9260 15.08849527 25058,6917.851,95.437,541.325,538.1080000000002,0.0
52700.0,STARLINK-4034,PAYLOAD,2022-10-27 05:43:06,15.08851162,0.0002335999999999,53.2177,268.3347,43.6561,316.4616,0.00043764,6.686e-05,0.0,0 STARLINK-4034,1 52700U 22053AW  22300.23826645  .00006686  00000-0  43764-3 0  9992,2 52700  53.2177 268.3347 0002336  43.6561 316.4616 15.08851162 25486,6917.846,95.437,541.327,538.095,0.0
52700.0,STARLINK-4034,PAYLOAD,2022-10-27 15:15:24,15.08859813,0.0002288,53.2172,266.5507,43.1014,317.0157,0.00040735,6.204e-05,0.0,0 STARLINK-4034,1 52700U 22053AW  22300.63570156  .00006204  00000-0  40735-3 0  9990,2 52700  53.2172 266.5507 0002288  43.1014 317.0157 15.08859813 25548,6917.82,95.436,541.268,538.102,0.0
52700.0,STARLINK-4034,PAYLOAD,2022-10-27 23:12:20,15.08849022,0.0002327,53.2173,265.0642,44.2369,315.8809,0.00013456,1.854e-05,0.0,0 STARLINK-4034,1 52700U 22053AW  22300.96690405  .00001854  00000-0  13456-3 0  9992,2 52700  53.2173 265.0642 0002327  44.2369 315.8809 15.08849022 25183,6917.853,95.437,541.328,538.1080000000002,0.0
52700.0,STARLINK-4034,PAYLOAD,2022-10-28 03:58:29,15.08865263,0.0002218999999999,53.2174,264.1723,39.7741,320.3413,-0.00044048,-7.297e-05,0.0,0 STARLINK-4034,1 52700U 22053AW  22301.16561368 -.00007297  00000-0 -44048-3 0  9990,2 52700  53.2174 264.1723 0002219  39.7741 320.3413 15.08865263 25623,6917.803000000001,95.436,541.203,538.133,0.0
52700.0,STARLINK-4034,PAYLOAD,2022-10-29 05:24:39,15.0884986,0.0002265,53.2169,259.4152,40.205,319.9109,5.0543e-05,5.16e-06,0.0,0 STARLINK-4034,1 52700U 22053AW  22302.22545562  .00000516  00000-0  50543-4 0  9999,2 52700  53.2169 259.4152 0002265  40.2050 319.9109 15.08849860 25789,6917.85,95.437,541.2819999999998,538.148,0.0
52700.0,STARLINK-4034,PAYLOAD,2022-10-29 19:43:07,15.08850083,0.00022,53.2169,256.7384,38.4134,321.7014,0.00014975,2.096e-05,0.0,0 STARLINK-4034,1 52700U 22053AW  22302.82161253  .00002096  00000-0  14975-3 0  9999,2 52700  53.2169 256.7384 0002200  38.4134 321.7014 15.08850083 25872,6917.85,95.437,541.236,538.193,0.0
52700.0,STARLINK-4034,PAYLOAD,2022-10-30 05:15:25,15.08850879,0.0002269,53.2174,254.9547,36.9612,323.1537,0.00012139,1.645e-05,0.0,0 STARLINK-4034,1 52700U 22053AW  22303.21904964  .00001645  00000-0  12139-3 0  9996,2 52700  53.2174 254.9547 0002269  36.9612 323.1537 15.08850879 25934,6917.847,95.437,541.2819999999998,538.1419999999998,0.0
52700.0,STARLINK-4034,PAYLOAD,2022-10-30 21:09:17,15.08845168,0.000222,53.2173,251.9808,37.8749,322.2399,-0.00013587,-2.45e-05,0.0,0 STARLINK-4034,1 52700U 22053AW  22303.88144976 -.00002450  00000-0 -13587-3 0  9993,2 52700  53.2173 251.9808 0002220  37.8749 322.2399 15.08845168 26031,6917.865,95.437,541.265,538.194,0.0
52700.0,STARLINK-4034,PAYLOAD,2022-10-31 05:06:14,15.08823204,0.0002044,53.2181,250.4936,37.6123,322.5012,-0.00011673,-2.145e-05,0.0,0 STARLINK-4034,1 52700U 22053AW  22304.21266810 -.00002145  00000-0 -11673-3 0  9998,2 52700  53.2181 250.4936 0002044  37.6123 322.5012 15.08823204 26081,6917.932,95.439,541.211,538.383,0.0
52700.0,STARLINK-4034,PAYLOAD,2022-10-31 19:24:42,15.08833667,0.0002004,53.2183,247.8175,39.0958,321.0179,-0.00010011,-1.881e-05,0.0,0 STARLINK-4034,1 52700U 22053AW  22304.80882493 -.00001881  00000-0 -10011-3 0  9995,2 52700  53.2183 247.8175 0002004  39.0958 321.0179 15.08833667 25762,6917.9,95.438,541.151,538.378,0.0
52700.0,STARLINK-4034,PAYLOAD,2022-11-01 12:53:57,15.08833601,0.0002036,53.2181,244.5465,39.2527,320.8612,3.2072e-05,2.22e-06,0.0,0 STARLINK-4034,1 52700U 22053AW  22305.53746564  .00000222  00000-0  32072-4 0  9992,2 52700  53.2181 244.5465 0002036  39.2527 320.8612 15.08833601 26280,6917.9,95.438,541.173,538.356,0.0
52700.0,STARLINK-4034,PAYLOAD,2022-11-02 03:12:25,15.08830277,0.0002101,53.2185,241.8692,38.6913,321.4229,0.00016171,2.286e-05,0.0,0 STARLINK-4034,1 52700U 22053AW  22306.13362642  .00002286  00000-0  16171-3 0  9993,2 52700  53.2185 241.8692 0002101  38.6913 321.4229 15.08830277 26378,6917.91,95.438,541.229,538.322,0.0
52700.0,STARLINK-4034,PAYLOAD,2022-11-03 03:03:15,15.08756083,0.0002529,53.2186,237.4082,32.5565,327.5582,0.0011319,0.00017731,0.0,0 STARLINK-4034,1 52700U 22053AW  22307.12726299  .00017731  00000-0  11319-2 0  9994,2 52700  53.2186 237.4082 0002529  32.5565 327.5582 15.08756083 26116,6918.137,95.443,541.751,538.252,0.0
52700.0,STARLINK-4034,PAYLOAD,2022-11-03 18:57:03,15.08845282,0.0002272,53.2195,234.4352,37.9897,322.1256,0.00020766,3.019e-05,0.0,0 STARLINK-4034,1 52700U 22053AW  22307.78962127  .00003019  00000-0  20766-3 0  9999,2 52700  53.2195 234.4352 0002272  37.9897 322.1256 15.08845282 26215,6917.864000000001,95.437,541.3009999999998,538.158,0.0
52700.0,STARLINK-4034,PAYLOAD,2022-11-04 02:53:58,15.08860774,0.0002241,53.218,232.9495,38.978,321.1373,0.00048209,7.397e-05,0.0,0 STARLINK-4034,1 52700U 22053AW  22308.12081764  .00007397  00000-0  48209-3 0  9992,2 52700  53.2180 232.9495 0002241  38.9780 321.1373 15.08860774 26265,6917.816999999999,95.436,541.232,538.132,0.0
52700.0,STARLINK-4034,PAYLOAD,2022-11-04 12:26:17,15.08868015,0.0002246,53.2176,231.1652,39.1769,320.9385,0.00056151,8.666e-05,0.0,0 STARLINK-4034,1 52700U 22053AW  22308.51825257  .00008666  00000-0  56151-3 0  9993,2 52700  53.2176 231.1652 0002246  39.1769 320.9385 15.08868015 26739,6917.795,95.436,541.2130000000002,538.106,0.0
52700.0,STARLINK-4034,PAYLOAD,2022-11-04 18:47:49,15.08852308,0.0002146,53.2173,229.9757,44.405,315.7114,7.4959e-05,9.05e-06,0.0,0 STARLINK-4034,1 52700U 22053AW  22308.78321486  .00000905  00000-0  74959-4 0  9992,2 52700  53.2173 229.9757 0002146  44.4050 315.7114 15.08852308 26367,6917.843000000003,95.437,541.192,538.2230000000002,0.0
52700.0,STARLINK-4034,PAYLOAD,2022-11-05 04:20:08,15.0884034,0.0001982,53.2178,228.1922,39.1588,320.9547,-0.00015334,-2.728e-05,0.0,0 STARLINK-4034,1 52700U 22053AW  22309.18065403 -.00002728  00000-0 -15334-3 0  9999,2 52700  53.2178 228.1922 0001982  39.1588 320.9547 15.08840340 26429,6917.879,95.438,541.115,538.373,0.0
52700.0,STARLINK-4034,PAYLOAD,2022-11-05 12:17:05,15.08813016,0.0002272,53.2174,226.705,38.4112,321.7042,-0.00048262,-7.956e-05,0.0,0 STARLINK-4034,1 52700U 22053AW  22309.51186583 -.00007956  00000-0 -48262-3 0  9993,2 52700  53.2174 226.7050 0002272  38.4112 321.7042 15.08813016 26888,6917.9630000000025,95.439,541.4,538.256,0.0
52700.0,STARLINK-4034,PAYLOAD,2022-11-06 01:00:10,15.08842395,0.0001928,53.2175,224.3261,32.4262,327.6848,0.0015276,0.00024109,0.0,0 STARLINK-4034,1 52700U 22053AW  22310.04179077  .00024109  00000-0  15276-2 0  9998,2 52700  53.2175 224.3261 0001928  32.4262 327.6848 15.08842395 26559,6917.873000000001,95.437,541.072,538.404,0.0
52700.0,STARLINK-4034,PAYLOAD,2022-11-06 21:40:11,15.08841024,0.0001845,53.2169,220.4583,32.7073,327.4033,0.00044687,6.831e-05,0.0,0 STARLINK-4034,1 52700U 22053AW  22310.90291101  .00006831  00000-0  44687-3 0  9997,2 52700  53.2169 220.4583 0001845  32.7073 327.4033 15.08841024 26683,6917.877,95.437,541.019,538.466,0.0
